[
  {
    "OBJECT_NAME": "FENGYUN 1C DEB",
    "OBJECT_ID": "1999-025DFA",
    "EPOCH": "2026-07-09T03:03:14.641056",
    "MEAN_MOTION": 14.04867719,
    "ECCENTRICITY": 0.04496846,
    "INCLINATION": 99.0419,
    "RA_OF_ASC_NODE": 312.2676,
    "ARG_OF_PERICENTER": 230.3414,
    "MEAN_ANOMALY": 125.7269,
    "EPHEMERIS_TYPE": 0,
    "CLASSIFICATION_TYPE": "U",
    "NORAD_CAT_ID": 33665,
    "ELEMENT_SET_NO": 999,
    "REV_AT_EPOCH": 95516,
    "BSTAR": 0.00051318882,
    "MEAN_MOTION_DOT": 0.00002001,
    "MEAN_MOTION_DDOT": 0
  }
]
