FENGYUN 1C DEB          
1 33665U 99025DFA 26190.12725279  .00002001  00000+0  51319-3 0  9995
2 33665  99.0419 312.2676 0449684 230.3414 125.7269 14.04867719955161
